SHIJIAN-17 (SJ-17)      
1 41838U 16065A   26183.41089788  .00000131  00000+0  00000+0 0  9990
2 41838   5.7891  72.4241 0002197  35.3187 173.7243  0.99860955 35356
GOES 16                 
1 41866U 16071A   26185.20151130 -.00000079  00000+0  00000+0 0  9990
2 41866   0.3801  85.6628 0000532  44.8037 119.6078  1.00271939 35271
TIANLIAN 1-04           
1 41869U 16072A   26184.33308521  .00000042  00000+0  00000+0 0  9994
2 41869   0.9098  82.8084 0043578  90.4618  44.8571  1.00275040 35467
WGS F8 (USA 272)        
1 41879U 16075A   26183.86106249  .00000000  00000+0  00000+0 0  9992
2 41879   0.0477  61.7262 0000048   6.6830 312.3318  1.00267189 34976
FENGYUN 4A              
1 41882U 16077A   26184.97961319 -.00000346  00000+0  00000+0 0  9992
2 41882   2.3628  80.1040 0007941 157.9543 160.3533  1.00275329 35091
ECHOSTAR 19             
1 41893U 16079A   26183.63461994 -.00000129  00000+0  00000+0 0  9991
2 41893   0.0183  29.6206 0001703  84.7699 297.6529  1.00276643 34857
JCSAT-110A (JCSAT-15)   
1 41903U 16082A   26183.88759589 -.00000340  00000+0  00000+0 0  9999
2 41903   0.0176  15.8785 0000802  94.2248 240.4195  1.00270379 34917
STAR ONE D1             
1 41904U 16082B   26185.13427792  .00000000  00000+0  00000+0 0  9990
2 41904   0.0450  64.9652 0002129  54.0367 127.5256  1.00267720 34943
TJS-2                   
1 41911U 17001A   26185.16413713  .00000005  00000+0  00000+0 0  9996
2 41911   0.8745  85.1249 0000847  64.0317 258.6747  1.00273189 34884
SBIRS GEO-4 (USA 273)   
1 41937U 17004A   26183.84962556  .00000136  00000+0  00000+0 0  9999
2 41937   2.2711  43.6757 0002970  58.6191 145.5771  1.00287153 34755
HISPASAT 36W-1          
1 41942U 17006A   26183.78936292 -.00000234  00000+0  00000+0 0  9998
2 41942   0.0045 259.3148 0000813 212.5593  57.1200  1.00269597 34407
TELKOM 3S               
1 41944U 17007A   26183.82354084 -.00000352  00000+0  00000+0 0  9990
2 41944   0.0158 320.7379 0002446 142.2908 232.2974  1.00269766 34295
INTELSAT 32E (IS-32E)   
1 41945U 17007B   26183.43143799  .00000000  00000+0  00000+0 0  9996
2 41945   0.0218  28.0694 0000954 325.1520  39.3916  1.00263397 34370
ECHOSTAR 23             
1 42070U 17014A   26183.63210660 -.00000046  00000+0  00000+0 0  9999
2 42070   0.0187  36.0750 0001862  59.4884 302.7662  1.00268078 34079
WGS F9 (USA 275)        
1 42075U 17016A   26184.36436862 -.00000085  00000+0  00000+0 0  9994
2 42075   0.0188  11.6353 0000462 129.8546 259.0843  1.00270808 34052
SES-10                  
1 42432U 17017A   26183.56933301 -.00000262  00000+0  00000+0 0  9990
2 42432   0.0186  42.4916 0003014  63.1872 312.9916  1.00273517 33905
CHINASAT 16 (SJ-13)     
1 42662U 17018A   26184.24596696 -.00000341  00000+0  00000+0 0  9992
2 42662   0.0967  89.1400 0004432 130.5966 260.5869  1.00274596 33915
KOREASAT 7              
1 42691U 17023A   26183.82134186 -.00000351  00000+0  00000+0 0  9996
2 42691   0.0213 341.6245 0000684  86.5135 264.2568  1.00267351 33522
SGDC                    
1 42692U 17023B   26184.42617674 -.00000238  00000+0  00000+0 0  9996
2 42692   0.0133 348.8700 0002756 119.6259 251.5309  1.00270391 33560
GSAT-9                  
1 42695U 17024A   26185.02761241 -.00000275  00000+0  00000+0 0  9998
2 42695   0.0602  91.4701 0002161  21.6635 276.1718  1.00272102 33464
INMARSAT 5-F4           
1 42698U 17025A   26183.87420346  .00000000  00000+0  00000+0 0  9996
2 42698   0.0246  41.3937 0000508 138.1758 112.5603  1.00269474 33430
SES-15                  
1 42709U 17026A   26183.69960315  .00000071  00000+0  00000+0 0  9993
2 42709   0.0224 333.2991 0000649 116.3241 313.8103  1.00268893  7585
QZS-2 (MICHIBIKI-2)     
1 42738U 17028A   26184.47336514 -.00000107  00000+0  00000+0 0  9993
2 42738  39.4029 242.9137 0758568 269.4566  81.7440  1.00279734  7787
VIASAT-2                
1 42740U 17029A   26183.56872633 -.00000254  00000+0  00000+0 0  9996
2 42740   0.0220 295.9562 0000414 128.6843 350.8345  1.00269077 33356
EUTELSAT 172B           
1 42741U 17029B   26185.18497008  .00000006  00000+0  00000+0 0  9990
2 42741   0.0296 122.3718 0000160 308.2449  90.1721  1.00271475 33911
GSAT-19                 
1 42747U 17031A   26183.76514593  .00000136  00000+0  00000+0 0  9994
2 42747   0.0038 122.7837 0006935 317.7152 163.6350  1.00273565 33308
ECHOSTAR 21             
1 42749U 17032A   26185.22425068  .00000078  00000+0  00000+0 0  9993
2 42749   1.7699 356.7678 0002455  95.4820 280.9815  1.00270784 33273
BULGARIASAT-1           
1 42801U 17038A   26184.58087473  .00000022  00000+0  00000+0 0  9999
2 42801   0.0466  78.9199 0003047  29.1976  24.4846  1.00271290 33011
HELLAS-SAT 3            
1 42814U 17040A   26185.22997072  .00000164  00000+0  00000+0 0  9990
2 42814   0.0535  51.1585 0003930  14.0058 338.8652  1.00272771 32975
GSAT-17                 
1 42815U 17040B   26185.02691907 -.00000246  00000+0  00000+0 0  9999
2 42815   0.0442  88.4141 0001460 186.7901 110.0219  1.00269865 32951
INTELSAT 35E (IS-35E)   
1 42818U 17041A   26185.19198001 -.00000226  00000+0  00000+0 0  9996
2 42818   0.0187  41.3980 0001936  57.2240 218.2019  1.00273425 32984
COSMOS 2520             
1 42907U 17046A   26183.23504196  .00000148  00000+0  00000+0 0  9991
2 42907   0.0408 105.0003 0000565   9.5607 295.2988  1.00268661 32545
